ISS (ZARYA)             
1 25544U 98067A   24271.15161944  .00027818  00000+0  49755-3 0  9995
2 25544  51.6368 170.3442 0007200  35.8174 324.3297 15.49756475474366
BINAR-4                 
1 60952U 98067WS  24271.12121226  .00235023  00000+0  28034-2 0  9998
2 60952  51.6344 169.3930 0005427  62.2840 297.8703 15.59722993  4471
COSMOGIRLSAT            
1 60953U 98067WT  24271.14321714  .00129863  00000+0  17644-2 0  9994
2 60953  51.6357 169.5413 0008879  50.6488 309.5289 15.56628125  4476
SAKURA                  
1 60954U 98067WU  24271.00759477  .00162474  00000+0  21339-2 0  9992
2 60954  51.6350 170.1359 0008426  52.3712 307.8044 15.57412794  4456
1998-067WV              
1 60955U 98067WV  24270.82257895  .00370889  00000+0  35963-2 0  9998
2 60955  51.6333 170.3995 0002998  83.3091 276.8245 15.64614804  4438
BINAR-2                 
1 60956U 98067WW  24271.12470009  .00190234  00000+0  23639-2 0  9998
2 60956  51.6311 169.4119 0006486  59.5973 300.5660 15.58797940  4467
BINAR-3                 
1 60957U 98067WX  24270.98517689  .00244657  00000+0  28359-2 0  9991
2 60957  51.6326 169.9824 0005166  61.7120 298.4394 15.60441462  6431
1998-067WY              
1 60958U 98067WY  24270.76138099  .00123141  00000+0  17071-2 0  9995
2 60958  51.6361 171.4930 0009464  47.7146 312.4647 15.56107212  4404
SOYUZ-MS 26             
1 61043U 24162A   24270.82919909  .00030039  00000+0  53678-3 0  9997
2 61043  51.6366 171.9406 0007236  35.0669 325.0795 15.49740538472693
CSS (TIANHE)            
1 48274U 21035A   24270.81851374  .00061405  00000+0  66113-3 0  9993
2 48274  41.4671 183.4093 0004343  31.2792 328.8306 15.62787661194997
ISS (NAUKA)             
1 49044U 21066A   24270.82919909  .00030039  00000+0  53678-3 0  9994
2 49044  51.6366 171.9406 0007236  35.0669 325.0795 15.49740538180382
FREGAT DEB              
1 49271U 11037PF  24270.67286198  .00014155  00000+0  36111-1 0  9995
2 49271  51.6378  55.3531 0906381 344.6057  12.8811 12.20600309147582
CSS (WENTIAN)           
1 53239U 22085A   24270.81851374  .00061405  00000+0  66113-3 0  9996
2 53239  41.4671 183.4093 0004343  31.2792 328.8306 15.62787661124289
CSS (MENGTIAN)          
1 54216U 22143A   24270.81851374  .00061405  00000+0  66113-3 0  9997
2 54216  41.4671 183.4093 0004343  31.2792 328.8306 15.62787661108704
TIANZHOU-7              
1 58811U 24013A   24270.81851374  .00061405  00000+0  66113-3 0  9990
2 58811  41.4671 183.4093 0004343  31.2792 328.8306 15.62787661159929
CREW DRAGON 8           
1 59097U 24042A   24270.82919909  .00030039  00000+0  53678-3 0  9990
2 59097  51.6366 171.9406 0007236  35.0669 325.0795 15.49740538472699
1998-067WL              
1 59561U 98067WL  24271.09180772  .00122782  00000+0  97335-3 0  9997
2 59561  51.6285 160.1568 0001757 175.8758 184.2254 15.70402964 25228
SNOOPI                  
1 59563U 98067WN  24269.79580319  .02239490  64862-2  16132-2 0  9995
2 59563  51.6152 156.6182 0007784 233.6043 126.4257 16.16734086 25169
SHENZHOU-18 (SZ-18)     
1 59591U 24078A   24270.81851374  .00061405  00000+0  66113-3 0  9997
2 59591  41.4671 183.4093 0004343  31.2792 328.8306 15.62787661 23880
SZ-17 MODULE            
1 59624U 23164C   24271.14020984  .00104485  00000+0  57295-3 0  9998
2 59624  41.4729 173.3672 0012832 253.8336 106.1097 15.78568712 23571
PROGRESS-MS 27          
1 59913U 24103A   24270.82919909  .00030039  00000+0  53678-3 0  9995
2 59913  51.6366 171.9406 0007236  35.0669 325.0795 15.49740538 18759
CYGNUS NG-21            
1 60378U 24139A   24270.82919909  .00030039  00000+0  53678-3 0  9991
2 60378  51.6366 171.9406 0007236  35.0669 325.0795 15.49740538  8294
PROGRESS-MS 28          
1 60450U 24145A   24270.82919909  .00030039  00000+0  53678-3 0  9999
2 60450  51.6366 171.9406 0007236  35.0669 325.0795 15.49740538  6596
